ONEWEB-0699             
1 61605U 24188M   26158.67082678  .00000123  00000+0  31540-3 0  9998
2 61605  87.8836  38.1615 0001353 101.0275 259.1004 13.10369491 82066
ONEWEB-0700             
1 61606U 24188N   26158.67248389  .00000041  00000+0  82372-4 0  9991
2 61606  87.8857  38.0686 0001706 105.3864 254.7451 13.10369692 82059
ONEWEB-0701             
1 61607U 24188P   26158.68906935 -.00000650  00000+0 -18987-2 0  9998
2 61607  87.8842  38.1565 0001269 106.3252 253.8015 13.10371567 82068
ONEWEB-0702             
1 61608U 24188Q   26158.63503619 -.00000154  00000+0 -47080-3 0  9992
2 61608  87.8912  22.8865 0001633 118.9155 241.2137 13.11415790 83230
ONEWEB-0704             
1 61609U 24188R   26158.67746147 -.00000214  00000+0 -64957-3 0  9991
2 61609  87.8851  38.1479 0001846 117.9055 242.2259 13.10370043 82042
ONEWEB-0705             
1 61610U 24188S   26158.68244587 -.00000465  00000+0 -13678-2 0  9996
2 61610  87.8847  38.1521 0002419 106.3827 253.7566 13.10365445 74211
ONEWEB-0706             
1 61611U 24188T   26158.66750988  .00000344  00000+0  94928-3 0  9994
2 61611  87.8843  38.1612 0001847 102.0711 258.0624 13.10370112 82138
ONEWEB-0707             
1 61612U 24188U   26158.67414241 -.00000022  00000+0 -10016-3 0  9996
2 61612  87.8846  38.1532 0001764 100.7630 259.3696 13.10369656 82073
ONEWEB-0708             
1 61613U 24188V   26158.69238958 -.00000665  00000+0 -19413-2 0  9990
2 61613  87.8842  38.1687 0002305  88.0354 272.1038 13.10372173 82053
