OBJECT_NAME,OBJECT_ID,EPOCH,MEAN_MOTION,ECCENTRICITY,INCLINATION,RA_OF_ASC_NODE,ARG_OF_PERICENTER,MEAN_ANOMALY,EPHEMERIS_TYPE,CLASSIFICATION_TYPE,NORAD_CAT_ID,ELEMENT_SET_NO,REV_AT_EPOCH,BSTAR,MEAN_MOTION_DOT,MEAN_MOTION_DDOT
ONEWEB-0699,2024-188M,2026-06-07T16:05:59.433792,13.10369491,.0001353,87.8836,38.1615,101.0275,259.1004,0,U,61605,999,8206,.3154E-3,.123E-5,0
ONEWEB-0700,2024-188N,2026-06-07T16:08:22.608096,13.10369692,.0001706,87.8857,38.0686,105.3864,254.7451,0,U,61606,999,8205,.82372E-4,.41E-6,0
ONEWEB-0701,2024-188P,2026-06-07T16:32:15.591840,13.10371567,.0001269,87.8842,38.1565,106.3252,253.8015,0,U,61607,999,8206,-.18987E-2,-.65E-5,0
ONEWEB-0702,2024-188Q,2026-06-07T15:14:27.126816,13.11415790,.0001633,87.8912,22.8865,118.9155,241.2137,0,U,61608,999,8323,-.4708E-3,-.154E-5,0
ONEWEB-0704,2024-188R,2026-06-07T16:15:32.671008,13.10370043,.0001846,87.8851,38.1479,117.9055,242.2259,0,U,61609,999,8204,-.64957E-3,-.214E-5,0
ONEWEB-0705,2024-188S,2026-06-07T16:22:43.323168,13.10365445,.0002419,87.8847,38.1521,106.3827,253.7566,0,U,61610,999,7421,-.13678E-2,-.465E-5,0
ONEWEB-0706,2024-188T,2026-06-07T16:01:12.853632,13.10370112,.0001847,87.8843,38.1612,102.0711,258.0624,0,U,61611,999,8213,.94928E-3,.344E-5,0
ONEWEB-0707,2024-188U,2026-06-07T16:10:45.904224,13.10369656,.0001764,87.8846,38.1532,100.7630,259.3696,0,U,61612,999,8207,-.10016E-3,-.22E-6,0
ONEWEB-0708,2024-188V,2026-06-07T16:37:02.459712,13.10372173,.0002305,87.8842,38.1687,88.0354,272.1038,0,U,61613,999,8205,-.19413E-2,-.665E-5,0
